NORAD_CAT_ID,OBJECT_NAME,OBJECT_TYPE,EPOCH,MEAN_MOTION,ECCENTRICITY,INCLINATION,RA_OF_ASC_NODE,ARG_OF_PERICENTER,MEAN_ANOMALY,BSTAR,MEAN_MOTION_DOT,MEAN_MOTION_DDOT,TLE_LINE0,TLE_LINE1,TLE_LINE2,SEMIMAJOR_AXIS,PERIOD,APOGEE,PERIGEE,DECAYED
55280.0,STARLINK-5331,PAYLOAD,2023-04-19 14:01:26,14.98327727,0.0002821,70.0003,184.6557,267.0661,93.0175,3.9092e-05,3.73e-06,0.0,0 STARLINK-5331,1 55280U 23010M   23109.58433161  .00000373  00000-0  39092-4 0  9992,2 55280  70.0003 184.6557 0002821 267.0661  93.0175 14.98327727 14739,6950.2,96.107,574.026,570.104,0.0
55280.0,STARLINK-5331,PAYLOAD,2023-04-20 09:15:02,14.98328646,0.0002892,70.0001,182.6363,264.8316,95.2513,1.3127e-05,6.4e-07,0.0,0 STARLINK-5331,1 55280U 23010M   23110.38545104  .00000064  00000-0  13127-4 0  9991,2 55280  70.0001 182.6363 0002892 264.8316  95.2513 14.98328646 14854,6950.197,96.107,574.072,570.052,0.0
55280.0,STARLINK-5331,PAYLOAD,2023-04-20 14:03:27,14.98330273,0.0002865,70.0002,182.1312,265.4359,94.6472,-2.2923e-05,-3.66e-06,0.0,0 STARLINK-5331,1 55280U 23010M   23110.58573102 -.00000366  00000-0 -22923-4 0  9993,2 55280  70.0002 182.1312 0002865 265.4359  94.6472 14.98330273 14887,6950.192,96.107,574.048,570.066,0.0
55280.0,STARLINK-5331,PAYLOAD,2023-04-21 06:04:48,14.98318542,0.000297,70.0,180.448,262.1431,97.9391,0.00014575,1.646e-05,0.0,0 STARLINK-5331,1 55280U 23010M   23111.25333377  .00001646  00000-0  14575-3 0  9999,2 55280  70.0000 180.4480 0002970 262.1431  97.9391 14.98318542 14986,6950.228,96.108,574.158,570.029,0.0
55280.0,STARLINK-5331,PAYLOAD,2023-04-21 14:05:28,14.98330047,0.0002878,70.0,179.6068,263.2334,96.8497,-4.8005e-05,-6.66e-06,0.0,0 STARLINK-5331,1 55280U 23010M   23111.58713199 -.00000666  00000-0 -48005-4 0  9998,2 55280  70.0000 179.6068 0002878 263.2334  96.8497 14.98330047 14720,6950.193,96.107,574.058,570.057,0.0
55280.0,STARLINK-5331,PAYLOAD,2023-04-21 22:06:08,14.98324788,0.0002966,69.9998,178.7639,264.9725,95.1095,7.5836e-05,8.12e-06,0.0,0 STARLINK-5331,1 55280U 23010M   23111.92093294  .00000812  00000-0  75836-4 0  9996,2 55280  69.9998 178.7639 0002966 264.9725  95.1095 14.98324788 15088,6950.209,96.107,574.135,570.013,0.0
55280.0,STARLINK-5331,PAYLOAD,2023-04-22 04:30:40,14.9833189,0.0003175,69.9993,178.0912,272.2142,87.8653,3.5068e-05,3.25e-06,0.0,0 STARLINK-5331,1 55280U 23010M   23112.18796898  .00000325  00000-0  35068-4 0  9997,2 55280  69.9993 178.0912 0003175 272.2142  87.8653 14.98331890 15123,6950.187,96.107,574.259,569.845,0.0
55280.0,STARLINK-5331,PAYLOAD,2023-04-22 22:08:09,14.98327876,0.0003056,69.9998,176.2388,271.2088,88.8721,1.4021e-05,7.4e-07,0.0,0 STARLINK-5331,1 55280U 23010M   23112.92233049  .00000074  00000-0  14021-4 0  9990,2 55280  69.9998 176.2388 0003056 271.2088  88.8721 14.98327876 14924,6950.199,96.107,574.188,569.94,0.0
55280.0,STARLINK-5331,PAYLOAD,2023-04-23 14:09:29,14.98329065,0.0003082,69.9996,174.5556,271.1138,88.9668,1.4638e-05,8.2e-07,0.0,0 STARLINK-5331,1 55280U 23010M   23113.58992998  .00000082  00000-0  14638-4 0  9991,2 55280  69.9996 174.5556 0003082 271.1138  88.9668 14.98329065 15333,6950.196,96.107,574.203,569.919,0.0
55280.0,STARLINK-5331,PAYLOAD,2023-04-24 02:58:33,14.98338909,0.0003001,69.9995,173.209,271.0703,89.0113,1.5326e-05,9e-07,0.0,0 STARLINK-5331,1 55280U 23010M   23114.12400301  .00000090  00000-0  15326-4 0  9998,2 55280  69.9995 173.2090 0003001 271.0703  89.0113 14.98338909 15108,6950.165,96.106,574.116,569.945,0.0
55280.0,STARLINK-5331,PAYLOAD,2023-04-24 14:11:28,14.9836945,0.0002359,69.9999,172.0314,274.8293,85.2597,-0.00016792,-2.098e-05,0.0,0 STARLINK-5331,1 55280U 23010M   23114.59130397 -.00002098  00000-0 -16792-3 0  9993,2 55280  69.9999 172.0314 0002359 274.8293  85.2597 14.98369450 15488,6950.071,96.104,573.575,570.296,0.0
55280.0,STARLINK-5331,PAYLOAD,2023-04-25 11:01:16,14.98310559,0.0002953,69.9993,169.8436,276.3965,83.6858,-0.00017514,-2.181e-05,0.0,0 STARLINK-5331,1 55280U 23010M   23115.45922373 -.00002181  00000-0 -17514-3 0  9998,2 55280  69.9993 169.8436 0002953 276.3965  83.6858 14.98310559 15303,6950.253,96.108,574.17,570.066,0.0
55280.0,STARLINK-5331,PAYLOAD,2023-04-26 11:03:18,14.98324207,0.0003128,69.9994,167.3199,274.6378,85.4424,-0.00025858,-3.177e-05,0.0,0 STARLINK-5331,1 55280U 23010M   23116.46062506 -.00003177  00000-0 -25858-3 0  9999,2 55280  69.9994 167.3199 0003128 274.6378  85.4424 14.98324207 15761,6950.211,96.107,574.25,569.902,0.0
55280.0,STARLINK-5331,PAYLOAD,2023-04-26 20:40:06,14.98328793,0.0003212,69.9991,166.3088,277.7993,82.2802,-0.00019176,-2.38e-05,0.0,0 STARLINK-5331,1 55280U 23010M   23116.86118223 -.00002380  00000-0 -19176-3 0  9992,2 55280  69.9991 166.3088 0003212 277.7993  82.2802 14.98328793 15821,6950.197,96.107,574.294,569.829,0.0
55280.0,STARLINK-5331,PAYLOAD,2023-04-27 11:05:18,14.98316735,0.0002426,70.0006,164.7958,262.614,97.4743,0.00025099,2.902e-05,0.0,0 STARLINK-5331,1 55280U 23010M   23117.46202261  .00002902  00000-0  25099-3 0  9994,2 55280  70.0006 164.7958 0002426 262.6140  97.4743 14.98316735 15917,6950.234,96.108,573.785,570.413,0.0
55280.0,STARLINK-5331,PAYLOAD,2023-04-28 06:18:54,14.98336438,0.0002938,69.9995,162.775,270.0516,90.0307,0.0002555,2.957e-05,0.0,0 STARLINK-5331,1 55280U 23010M   23118.26312938  .00002957  00000-0  25550-3 0  9998,2 55280  69.9995 162.7750 0002938 270.0516  90.0307 14.98336438 15723,6950.173,96.107,574.08,569.996,0.0
55280.0,STARLINK-5331,PAYLOAD,2023-04-28 11:07:18,14.98340028,0.0003138,69.9988,162.2696,274.9177,85.1624,0.0002681,3.108e-05,0.0,0 STARLINK-5331,1 55280U 23010M   23118.46340592  .00003108  00000-0  26810-3 0  9996,2 55280  69.9988 162.2696 0003138 274.9177  85.1624 14.98340028 16063,6950.162,96.106,574.208,569.846,0.0
55280.0,STARLINK-5331,PAYLOAD,2023-04-29 12:45:27,14.98338358,0.0003048,69.9989,159.5748,277.2041,82.8771,-2.4866e-05,-3.9e-06,0.0,0 STARLINK-5331,1 55280U 23010M   23119.53156872 -.00000390  00000-0 -24866-4 0  9993,2 55280  69.9989 159.5748 0003048 277.2041  82.8771 14.98338358 16225,6950.167,96.106,574.15,569.914,0.0
55280.0,STARLINK-5331,PAYLOAD,2023-04-30 03:10:39,14.9837773,0.0002657,69.9986,158.06,272.3795,87.706,-0.00073727,-8.89e-05,0.0,0 STARLINK-5331,1 55280U 23010M   23120.13240360 -.00008890  00000-0 -73727-3 0  9999,2 55280  69.9986 158.0600 0002657 272.3795  87.7060 14.98377730 16008,6950.045,96.104,573.757,570.064,0.0
55280.0,STARLINK-5331,PAYLOAD,2023-04-30 12:47:28,14.98337933,0.0003231,69.9983,157.05,278.4086,81.6707,-0.00013297,-1.68e-05,0.0,0 STARLINK-5331,1 55280U 23010M   23120.53296505 -.00001680  00000-0 -13297-3 0  9991,2 55280  69.9983 157.0500 0003231 278.4086  81.6707 14.98337933 16060,6950.168,96.106,574.279,569.788,0.0
55280.0,STARLINK-5331,PAYLOAD,2023-05-01 11:13:21,14.98328162,0.0003141,69.9984,154.6934,272.6311,87.4488,-4.8841e-05,-6.76e-06,0.0,0 STARLINK-5331,1 55280U 23010M   23121.46760659 -.00000676  00000-0 -48841-4 0  9998,2 55280  69.9984 154.6934 0003141 272.6311  87.4488 14.98328162 16516,6950.199,96.107,574.247,569.881,0.0
55280.0,STARLINK-5331,PAYLOAD,2023-05-02 11:15:21,14.98330808,0.0003255,69.9981,152.1682,272.0166,88.0621,3.0498e-05,2.71e-06,0.0,0 STARLINK-5331,1 55280U 23010M   23122.46900215  .00000271  00000-0  30498-4 0  9991,2 55280  69.9981 152.1682 0003255 272.0166  88.0621 14.98330808 16352,6950.19,96.107,574.318,569.793,0.0
55280.0,STARLINK-5331,PAYLOAD,2023-05-03 11:17:22,14.98329343,0.0003348,69.9979,149.6433,271.9216,88.1559,2.7252e-05,2.32e-06,0.0,0 STARLINK-5331,1 55280U 23010M   23123.47040255  .00000232  00000-0  27252-4 0  9993,2 55280  69.9979 149.6433 0003348 271.9216  88.1559 14.98329343 16501,6950.195,96.107,574.387,569.733,0.0
55280.0,STARLINK-5331,PAYLOAD,2023-05-04 11:19:23,14.98330163,0.0003359,69.9979,147.1183,271.829,88.2484,-1.6605e-05,-2.91e-06,0.0,0 STARLINK-5331,1 55280U 23010M   23124.47180292 -.00000291  00000-0 -16605-4 0  9997,2 55280  69.9979 147.1183 0003359 271.8290  88.2484 14.98330163 16655,6950.192,96.107,574.392,569.723,0.0
55280.0,STARLINK-5331,PAYLOAD,2023-05-04 19:20:04,14.98328752,0.0003388,69.9978,146.2764,271.9656,88.1115,-1.8429e-05,-3.13e-06,0.0,0 STARLINK-5331,1 55280U 23010M   23124.80560375 -.00000313  00000-0 -18429-4 0  9999,2 55280  69.9978 146.2764 0003388 271.9656  88.1115 14.98328752 17010,6950.197,96.107,574.416,569.707,0.0
55280.0,STARLINK-5331,PAYLOAD,2023-05-05 11:21:24,14.98329337,0.0003429,69.9977,144.5931,272.1627,87.914,-6.167e-06,-1.67e-06,0.0,0 STARLINK-5331,1 55280U 23010M   23125.47320307 -.00000167  00000-0 -61670-5 0  9996,2 55280  69.9977 144.5931 0003429 272.1627  87.9140 14.98329337 16804,6950.195,96.107,574.443,569.677,0.0
55280.0,STARLINK-5331,PAYLOAD,2023-05-06 08:11:09,14.98331937,0.0003472,69.9979,142.405,272.2556,87.8205,3.402e-05,3.13e-06,0.0,0 STARLINK-5331,1 55280U 23010M   23126.34108004  .00000313  00000-0  34020-4 0  9990,2 55280  69.9979 142.4050 0003472 272.2556  87.8205 14.98331937 17244,6950.187,96.107,574.465,569.639,0.0
55280.0,STARLINK-5331,PAYLOAD,2023-05-07 01:48:38,14.98328455,0.0003406,69.9982,140.5534,272.2848,87.7921,9.9786e-07,-8.1e-07,0.0,0 STARLINK-5331,1 55280U 23010M   23127.07544273 -.00000081  00000-0  99786-6 0  9998,2 55280  69.9982 140.5534 0003406 272.2848  87.7921 14.98328455 17048,6950.198,96.107,574.43,569.695,0.0
55280.0,STARLINK-5331,PAYLOAD,2023-05-07 09:49:18,14.98327846,0.0003395,69.9984,139.712,269.6874,90.3896,5.0829e-07,-8.7e-07,0.0,0 STARLINK-5331,1 55280U 23010M   23127.40924315 -.00000087  00000-0  50829-6 0  9995,2 55280  69.9984 139.7120 0003395 269.6874  90.3896 14.98327846 17401,6950.2,96.107,574.424,569.705,0.0
55280.0,STARLINK-5331,PAYLOAD,2023-05-07 17:49:58,14.98328795,0.0003376,69.9986,138.8703,269.3452,90.732,-7.5909e-06,-1.84e-06,0.0,0 STARLINK-5331,1 55280U 23010M   23127.74304292 -.00000184  00000-0 -75909-5 0  9992,2 55280  69.9986 138.8703 0003376 269.3452  90.7320 14.98328795 17453,6950.197,96.107,574.408,569.715,0.0
